{"type":"FeatureCollection","features":[{"type":"Feature","properties":{},"geometry":{"coordinates":[-103.5590591,20.4887412],"type":"Point"},"id":0},{"type":"Feature","properties":{"stroke":"#555555","stroke-width":2,"stroke-opacity":1,"fill":"#ff4d4d","fill-opacity":0.5},"geometry":{"type":"Polygon","coordinates":[[[-103.55905945408689,20.62363787475397],[-103.57318717098644,20.62298772806894],[-103.58717847203638,20.621043565845856],[-103.60089826902275,20.617824160478325],[-103.61421411567409,20.613360596227803],[-103.62699749546105,20.607695966773164],[-103.63912507000798,20.600884956037795],[-103.65047987567593,20.592993306494453],[-103.6609524564548,20.584097180266767],[-103.67044192200566,20.574282419405886],[-103.67885692051675,20.56364371270993],[-103.68611651696219,20.552283677362205],[-103.69215096837165,20.540311864483268],[-103.69690238881398,20.527843698412887],[-103.70032529795705,20.51499936015572],[-103.70238704827264,20.501902625933305],[-103.70306812719544,20.4886796721805],[-103.70236233180316,20.47545785860637],[-103.7002768148484,20.46236450110422],[-103.69683200222673,20.44952564634532],[-103.69206138319927,20.43706485982624],[-103.68601117588705,20.42510203896295],[-103.67873987171369,20.4137522625404],[-103.67031766357645,20.403124687437206],[-103.66082576357138,20.393321503057695],[-103.65035561707478,20.38443695332295],[-103.63900802088727,20.376556435405334],[-103.6268921539709,20.369755683644467],[-103.6141245300525,20.36410004626366],[-103.6008278820205,20.359643861622637],[-103.58712998861009,20.356429939802695],[-103.57316245434507,20.354489154332843],[-103.55905945408689,20.353840147838064],[-103.54495645382872,20.354489154332843],[-103.5309889195637,20.356429939802695],[-103.5172910261533,20.359643861622637],[-103.50399437812128,20.36410004626366],[-103.49122675420287,20.369755683644467],[-103.47911088728652,20.376556435405334],[-103.46776329109899,20.38443695332295],[-103.4572931446024,20.393321503057695],[-103.44780124459734,20.403124687437206],[-103.4393790364601,20.4137522625404],[-103.43210773228675,20.42510203896295],[-103.4260575249745,20.43706485982624],[-103.42128690594704,20.44952564634532],[-103.4178420933254,20.46236450110421],[-103.41575657637063,20.47545785860637],[-103.41505078097835,20.4886796721805],[-103.41573185990114,20.501902625933305],[-103.41779361021673,20.51499936015572],[-103.42121651935979,20.527843698412887],[-103.42596793980212,20.540311864483268],[-103.4320023912116,20.552283677362205],[-103.43926198765703,20.56364371270993],[-103.44767698616812,20.574282419405886],[-103.457166451719,20.584097180266767],[-103.46763903249786,20.592993306494453],[-103.4789938381658,20.600884956037795],[-103.49112141271272,20.607695966773164],[-103.50390479249971,20.613360596227803],[-103.51722063915102,20.617824160478325],[-103.53094043613739,20.621043565845856],[-103.54493173718734,20.62298772806894],[-103.55905945408689,20.62363787475397]]]}},{"type":"Feature","properties":{},"geometry":{"type":"Polygon","coordinates":[[[-103.55905902403299,20.578685603978236],[-103.56847595774472,20.57825224423314],[-103.5778020423328,20.576956345831118],[-103.58694730973961,20.574810410724066],[-103.59582354531557,20.571835140740298],[-103.604345142807,20.568059236848608],[-103.61242993354452,20.56351912091509],[-103.61999998166273,20.558258582703917],[-103.62698233754216,20.552328355608925],[-103.63330974210756,20.54578562530099],[-103.63892127513263,20.538693476130554],[-103.64376294128856,20.531120280727936],[-103.64778818831877,20.523139038790593],[-103.65095835242307,20.514826671531264],[-103.6532430266776,20.506263278678713],[-103.65462034909616,20.49753136527134],[-103.65507720774518,20.488715045758333],[-103.65460936114674,20.479899233123856],[-103.65322147303755,20.471168820873125],[-103.65092706138314,20.462607865767108],[-103.64774836237139,20.45429877916351],[-103.6437161109175,20.446321534718],[-103.63886923999813,20.438752900022607],[-103.63325450188708,20.43166569950991],[-103.62692601508446,20.425128115636465],[-103.61994474140826,20.41920303497825],[-103.61237789834725,20.413947445431333],[-103.60429831235392,20.409411890214788],[-103.59578371927941,20.40563998382644],[-103.58691601861764,20.4026679945099],[-103.57778048863,20.400524497159125],[-103.56846496976134,20.399230099920267],[-103.55905902403299,20.398797247055985],[-103.54965307830467,20.399230099920267],[-103.540337559436,20.400524497159125],[-103.53120202944837,20.4026679945099],[-103.52233432878658,20.40563998382644],[-103.51381973571209,20.409411890214788],[-103.50574014971875,20.413947445431333],[-103.49817330665772,20.41920303497825],[-103.49119203298153,20.425128115636465],[-103.48486354617893,20.43166569950991],[-103.47924880806788,20.438752900022607],[-103.47440193714851,20.446321534718],[-103.4703696856946,20.45429877916351],[-103.46719098668285,20.462607865767108],[-103.46489657502845,20.471168820873125],[-103.46350868691925,20.479899233123856],[-103.46304084032082,20.488715045758333],[-103.46349769896985,20.49753136527134],[-103.46487502138841,20.506263278678713],[-103.46715969564292,20.514826671531257],[-103.47032985974724,20.523139038790593],[-103.47435510677744,20.531120280727936],[-103.47919677293338,20.538693476130554],[-103.48480830595845,20.54578562530099],[-103.49113571052382,20.552328355608925],[-103.49811806640328,20.558258582703917],[-103.50568811452148,20.56351912091509],[-103.513772905259,20.568059236848608],[-103.52229450275044,20.571835140740298],[-103.5311707383264,20.574810410724066],[-103.54031600573317,20.576956345831118],[-103.54964209032127,20.57825224423314],[-103.55905902403299,20.578685603978236]]]},"id":2},{"type":"Feature","properties":{"stroke":"#555555","stroke-width":2,"stroke-opacity":1,"fill":"#310de3","fill-opacity":0.5},"geometry":{"type":"Polygon","coordinates":[[[-103.55905905992984,20.533721998665673],[-103.563767090512,20.533505339022835],[-103.56842974052962,20.53285744847594],[-103.57300206798581,20.531784571987025],[-103.5774400037364,20.530297050746956],[-103.58170077725293,20.528409222244676],[-103.58574332971128,20.52613928173257],[-103.58952871038179,20.5235091064399],[-103.59302045246605,20.520544044248812],[-103.59618492473305,20.517272668892506],[-103.59899165555176,20.513726504059747],[-103.6014136261938,20.50993971909041],[-103.60342753058801,20.505948799220103],[-103.60501399904285,20.501792193576062],[-103.60615778381064,20.49750994433858],[-103.60684790474406,20.493143300660545],[-103.60707775368832,20.48873432108046],[-103.60684515665598,20.48432546827092],[-103.60615239324186,20.479959200032802],[-103.60500617314966,20.475677560476687],[-103.60341757011481,20.471521775325776],[-103.60140191391571,20.46753185522933],[-103.59897864156471,20.46374621089386],[-103.59617110915708,20.460201283721098],[-103.59300636622586,20.456931195488362],[-103.58951489480371,20.453967420420987],[-103.58573031572031,20.451338482788724],[-103.58168906496968,20.449069682911098],[-103.57743004325768,20.447182854183396],[-103.57299424208752,20.445696153437183],[-103.56842434995691,20.444623886630236],[-103.56376434242179,20.443976371523664],[-103.55905905992984,20.443759838651513],[-103.55435377743785,20.443976371523664],[-103.54969376990276,20.444623886630236],[-103.54512387777216,20.445696153437183],[-103.540688076602,20.447182854183396],[-103.53642905489,20.449069682911098],[-103.53238780413936,20.451338482788724],[-103.52860322505596,20.453967420420987],[-103.52511175363381,20.456931195488362],[-103.52194701070259,20.460201283721098],[-103.51913947829496,20.46374621089386],[-103.51671620594396,20.46753185522933],[-103.51470054974486,20.471521775325776],[-103.51311194671001,20.475677560476687],[-103.5119657266178,20.479959200032802],[-103.51127296320368,20.48432546827092],[-103.51104036617136,20.48873432108046],[-103.51127021511562,20.493143300660545],[-103.511960336049,20.49750994433858],[-103.5131041208168,20.501792193576062],[-103.51469058927167,20.505948799220103],[-103.51670449366587,20.50993971909041],[-103.51912646430792,20.513726504059747],[-103.52193319512662,20.517272668892506],[-103.52509766739362,20.520544044248812],[-103.52858940947786,20.5235091064399],[-103.53237479014838,20.52613928173257],[-103.53641734260674,20.528409222244676],[-103.54067811612327,20.530297050746956],[-103.54511605187385,20.531784571987025],[-103.54968837933005,20.53285744847594],[-103.55435102934767,20.533505339022835],[-103.55905905992984,20.533721998665673]]]}}]}